NOAA 15                 
1 25338U 98030A   18339.48161176  .00000033  00000-0  32511-4 0  9991
2 25338  98.7610 355.9595 0011522  90.3508 269.8992 14.25886150 69438
METEOSAT-8 (MSG-1)      
1 27509U 02040B   18338.83643369  .00000135  00000-0  00000+0 0  9992
2 27509   5.7590  56.3328 0001333 281.7469  78.0266  1.00277275 59661
KALPANA-1 (METSAT 1)    
1 27525U 02043A   18338.70937043 -.00000006  00000-0  00000-0 0  9993
2 27525   8.5658  51.5265 0001597  67.9082 291.9795  0.98336818 59432
NOAA 18                 
1 28654U 05018A   18339.54242582  .00000021  00000-0  36244-4 0  9991
2 28654  99.1252  18.3101 0014322  10.3038 349.8424 14.12391450697978
METEOSAT-9 (MSG-2)      
1 28912U 05049B   18338.76185067  .00000020  00000-0  00000+0 0  9994
2 28912   3.2673  71.5570 0001407 307.0324 332.9466  1.00279382 47489
HIMAWARI-7 (MTSAT-2)    
1 28937U 06004A   18339.50789227 -.00000243  00000-0  00000+0 0  9992
2 28937   0.0590 113.0340 0003665 137.5030 151.5969  1.00272419 46772
FORMOSAT-3 FM6          
1 29047U 06011A   18338.98663255  .00000027  00000-0  27097-4 0  9995
2 29047  71.9773 173.8389 0051844 307.2391  52.4021 14.28659351661296
FORMOSAT-3 FM1          
1 29048U 06011B   18339.47900565  .00000003  00000-0  17583-4 0  9992
2 29048  71.9676  84.3945 0046019 264.6842  94.9043 14.28603113663830
FORMOSAT-3 FM5          
1 29049U 06011C   18339.23186181  .00000046  00000-0  34611-4 0  9995
2 29049  72.0208 253.3740 0036912 295.1145  64.6163 14.28683627659583
FORMOSAT-3 FM3          
1 29050U 06011D   18339.52736051  .00000141  00000-0  40097-4 0  9997
2 29050  72.0162  96.0119 0052098 262.8005  96.7223 14.58740266674772
FORMOSAT-3 FM4          
1 29051U 06011E   18338.96301798  .00000068  00000-0  42243-4 0  9994
2 29051  72.0038 157.0288 0068207 175.5960 184.5792 14.28709981662139
FORMOSAT-3 FM2          
1 29052U 06011F   18338.65147631  .00000059  00000-0  39317-4 0  9993
2 29052  72.0346 230.1984 0042241 259.0170 100.6213 14.28809309660410
GOES 13                 
1 29155U 06018A   18338.96208200 -.00000285  00000-0  00000+0 0  9992
2 29155   0.2222 103.9434 0007420 311.4254 304.7148  1.00264632 45931
METOP-A                 
1 29499U 06044A   18339.15372446  .00000010  00000-0  24281-4 0  9995
2 29499  98.6051  32.5954 0001959  85.2187 354.9500 14.21536275629286
FENGYUN 2D              
1 29640U 06053A   18338.74847882 -.00000365  00000-0  10000-3 0  9995
2 29640   5.4270  61.7967 0005810 316.6971  88.2227  1.00277921 43975
FENGYUN 3A              
1 32958U 08026A   18339.33857519  .00000023  00000-0  30141-4 0  9996
2 32958  98.3791 345.1290 0009909 155.8005 204.3643 14.19724142545406
FENGYUN 2E              
1 33463U 08066A   18339.06560583 -.00000209  00000-0  00000+0 0  9997
2 33463   3.2099  69.1965 0005485 247.5037 227.8948  1.00271860 36509
NOAA 19                 
1 33591U 09005A   18339.58587382  .00000050  00000-0  52172-4 0  9991
2 33591  99.1619 321.1820 0013513 202.3954 157.6628 14.12321459506360
GOES 14                 
1 35491U 09033A   18339.08382938 -.00000096  00000-0  00000+0 0  9997
2 35491   0.1752 279.6648 0011414 313.7954 126.4481  1.00271367 34576
METEOR-M 1              
1 35865U 09049A   18339.50606568  .00000020  00000-0  27535-4 0  9997
2 35865  98.4071 341.6378 0003051  43.9591 316.1830 14.22174960478333
GOES 15                 
1 36411U 10008A   18339.15166516  .00000055  00000-0  00000+0 0  9998
2 36411   0.2043 277.6960 0005329 300.5248 141.7553  1.00268006 32097
COMS 1                  
1 36744U 10032A   18339.50449006 -.00000345  00000-0  00000+0 0  9994
2 36744   0.0215 329.3065 0000544 357.4858  57.2287  1.00268939 31075
FENGYUN 3B              
1 37214U 10059A   18339.40259702  .00000017  00000-0  31718-4 0  9997
2 37214  98.9725 304.7608 0018001  56.5641 303.7250 14.15900899418429
SUOMI NPP               
1 37849U 11061A   18339.54273012 -.00000008  00000-0  16975-4 0  9999
2 37849  98.7167 275.5609 0001600  78.6577 336.9033 14.19550674368187
FENGYUN 2F              
1 38049U 12002A   18338.92707510 -.00000360  00000-0  00000-0 0  9993
2 38049   0.8219  78.3374 0000991 301.8843 139.7180  1.00276833 25303
METEOSAT-10 (MSG-3)     
1 38552U 12035B   18338.77051263  .00000062  00000-0  00000+0 0  9995
2 38552   1.0008   1.3839 0001556 307.8620  51.2286  1.00280145 23630
METOP-B                 
1 38771U 12049A   18339.56230196  .00000009  00000-0  24405-4 0  9996
2 38771  98.7333  36.3307 0001751 129.6969   7.5064 14.21475395322470
FENGYUN 3C              
1 39260U 13052A   18338.87270269 -.00000021  00000-0  10977-4 0  9997
2 39260  98.6335  39.1558 0011721  30.5609 329.6248 14.15855942269298
METEOR-M 2              
1 40069U 14037A   18339.13606426 -.00000042  00000-0  26623-6 0  9998
2 40069  98.5811  25.4990 0006799 102.6551 257.5389 14.20656278228656
HIMAWARI-8              
1 40267U 14060A   18338.40603182 -.00000279  00000-0  00000+0 0  9995
2 40267   0.0215 328.6284 0000795 305.0612  86.3014  1.00268424 15274
FENGYUN 2G              
1 40367U 14090A   18338.92445802 -.00000300  00000-0  00000-0 0  9995
2 40367   0.7959 106.9421 0003544 246.9618 151.9371  1.00263637 14456
METEOSAT-11 (MSG-4)     
1 40732U 15034A   18338.45544999 -.00000006  00000-0  00000-0 0  9998
2 40732   1.0700 235.5147 0001154  72.4411 288.8253  1.00273381 12456
ELEKTRO-L 2             
1 41105U 15074A   18339.15257946 -.00000098  00000-0  00000+0 0  9998
2 41105   0.0586  48.6919 0001084 214.4808 301.6489  1.00270038 10934
HIMAWARI-9              
1 41836U 16064A   18339.40296380 -.00000275  00000-0  00000+0 0  9999
2 41836   0.0549 115.1787 0000530 162.1992  82.6295  1.00272344  7721
GOES 16                 
1 41866U 16071A   18339.00393473 -.00000250  00000-0  00000+0 0  9990
2 41866   0.0125  94.3605 0000117 222.3931  43.2454  1.00271569  7520
FENGYUN 4A              
1 41882U 16077A   18338.98699862 -.00000331  00000-0  00000-0 0  9992
2 41882   0.0857 290.1119 0003001 173.0573  70.4353  1.00265715  7396
CYGFM05                 
1 41884U 16078A   18339.14124483  .00000275  00000-0  16450-4 0  9992
2 41884  34.9570 299.4927 0015328  83.8056 276.4400 15.14261958109113
CYGFM04                 
1 41885U 16078B   18339.29974749  .00000291  00000-0  17097-4 0  9993
2 41885  34.9502 294.7154 0013665  90.5553 269.6724 15.14767174109178
CYGFM02                 
1 41886U 16078C   18339.29277722  .00000299  00000-0  17518-4 0  9997
2 41886  34.9593 296.1060 0014439  87.8538 272.3826 15.14766101109165
CYGFM01                 
1 41887U 16078D   18339.30560739  .00000290  00000-0  17357-4 0  9995
2 41887  34.9537 298.7647 0015815  86.7471 273.5050 15.14082815109138
CYGFM08                 
1 41888U 16078E   18339.18564791  .00000275  00000-0  16354-4 0  9993
2 41888  34.9508 297.6168 0014952  88.9730 271.2694 15.14486634109121
CYGFM06                 
1 41889U 16078F   18339.26853449  .00000304  00000-0  17778-4 0  9998
2 41889  34.9588 294.9228 0013357  87.7883 272.4358 15.14755912109163
CYGFM07                 
1 41890U 16078G   18339.18115090  .00000280  00000-0  16489-4 0  9995
2 41890  34.9526 294.8223 0013114  89.1486 271.0727 15.14758660109154
CYGFM03                 
1 41891U 16078H   18338.91239809  .00000291  00000-0  17066-4 0  9995
2 41891  34.9558 296.5926 0012597  85.8886 274.3265 15.14759725109112
FENGYUN 3D              
1 43010U 17072A   18339.50826376  .00000024  00000-0  31907-4 0  9996
2 43010  98.6930 277.0493 0000508 235.3681 124.7437 14.19710143 54747
NOAA 20                 
1 43013U 17073A   18339.63696119 -.00000009  00000-0  16485-4 0  9992
2 43013  98.7423 275.5366 0001435  91.4431 268.6909 14.19553624 54239
GOES-S                  
1 43226U 18022A   18339.17578547  .00000096  00000-0  00000+0 0  9992
2 43226   0.0552 110.6314 0003089 262.4836 346.9066  1.00273305  2858
METOP-C                 
1 43689U 18087A   18339.23050972 -.00000044  00000-0  00000+0 0  9994
2 43689  98.7335  36.2795 0002711 149.1592 210.9745 14.21484560  4008
